0 GAOFEN 1-02
1 43259U 18031A   19294.94768392 +.00000056 +00000-0 +15364-4 0  9993
2 43259 097.9883 011.2904 0003363 232.0947 127.9944 14.76431969084084
0 GAOFEN 1-03
1 43260U 18031B   19294.92511771 +.00000037 +00000-0 +12687-4 0  9994
2 43260 097.9881 011.2890 0004556 332.8499 027.2465 14.76433813084073
0 GAOFEN 1-03
1 43260U 18031B   19295.73837817  .00000084  00000-0  19370-4 0  9994
2 43260  97.9877  12.0929 0004511 329.8151  30.2800 14.76434502 84198
0 GAOFEN 1-03
1 43260U 18031B   19295.12843316  .00000063  00000-0  16380-4 0  9993
2 43260  97.9880  11.4898 0004559 332.2451  27.8536 14.76434127 84105
0 GAOFEN 1-03
1 43260U 18031B   19295.39951963  .00000077  00000-0  18416-4 0  9997
2 43260  97.9879  11.7580 0004542 331.0649  29.0315 14.76434346 84148
0 CZ-4C DEB
1 43261U 18031C   19295.15346853  .00000254  00000-0  43494-4 0  9999
2 43261  97.9924  11.8306 0003098 221.5040 138.5935 14.76752694 84110
0 CZ-4C DEB
1 43261U 18031C   19294.81468247 +.00000252 +00000-0 +43228-4 0  9996
2 43261 097.9925 011.4952 0003074 222.7992 137.2979 14.76752495084064
0 GAOFEN 1-04
1 43262U 18031D   19294.90243740 +.00000040 +00000-0 +13046-4 0  9996
2 43262 097.9886 011.2157 0002731 248.3946 111.6963 14.76426459084065
0 GAOFEN 1-04
1 43262U 18031D   19295.10575406  .00000048  00000-0  14283-4 0  9998
2 43262  97.9885  11.4166 0002729 247.8902 112.2024 14.76426592 84095
0 GAOFEN 1-04
1 43262U 18031D   19295.44461449  .00000052  00000-0  14831-4 0  9990
2 43262  97.9885  11.7516 0002748 246.2424 113.8498 14.76426723 84144
0 GAOFEN 1-04
1 43262U 18031D   19295.78347523  .00000048  00000-0  14183-4 0  9998
2 43262  97.9884  12.0866 0002735 244.0140 116.0792 14.76426777 84198
0 CZ-4C DEB
1 43263U 18031E   19295.42784641  .00000191  00000-0  40272-4 0  9993
2 43263  97.9363   2.1088 0046116 236.8144 122.8636 14.69326225 83731
0 CZ-4C DEB
1 43263U 18031E   19294.13395308 +.00000187 +00000-0 +39504-4 0  9999
2 43263 097.9364 000.8516 0046049 241.0421 118.6164 14.69325606083544
0 CZ-4C R/B
1 43264U 18031F   19294.83790871 +.00000886 +00000-0 +69728-4 0  9998
2 43264 098.0662 035.8502 0105544 294.7717 064.2552 14.99559970085297
0 CZ-4C R/B
1 43264U 18031F   19295.37172503  .00000882  00000-0  69439-4 0  9999
2 43264  98.0664  36.4031 0105524 292.9790  66.0327 14.99560948 85378
0 CZ-4C DEB
1 43265U 18031G   19294.83638721 +.00000321 +00000-0 +53584-4 0  9991
2 43265 097.9927 011.1793 0005198 218.3554 141.7286 14.76362983084042
0 SUPERBIRD 8
1 43271U 18033A   19294.87549598 -.00000097 +00000-0 +00000-0 0  9999
2 43271 000.0161 161.2494 0001339 074.0824 271.9086 01.00277424005695
0 SUPERBIRD 8
1 43271U 18033A   19295.76020731 -.00000100  00000-0  00000+0 0  9995
2 43271   0.0197 152.4440 0001179  66.5075 247.6541  1.00271362  5694
0 HYLAS 4
1 43272U 18033B   19294.85975809 -.00000239 +00000-0 +00000-0 0  9994
2 43272 000.0691 115.6573 0004349 073.5053 116.8661 01.00271903005723
0 HYLAS 4
1 43272U 18033B   19295.07514355 -.00000240  00000-0  00000+0 0  9995
2 43272   0.0673 116.4238 0004252  72.0767 195.2800  1.00271441  5722
0 ARIANE 5 DEB (SYLDA)
1 43273U 18033C   19295.50959920  .00017781  00000-0  27499-2 0  9996
2 43273   2.6879  78.0947 7012796 342.5535   2.1414  2.63707789 13912
0 ARIANE 5 R/B
1 43274U 18033D   19295.39914369  .00001999  00000-0  47902-3 0  9998
2 43274   2.4379  98.3612 7241675 304.1020   7.1454  2.33710558 13142
0 ARIANE 5 R/B
1 43274U 18033D   19294.54353202 +.00002489 +00000-0 +56695-3 0  9991
2 43274 002.4357 098.7668 7241634 303.3279 007.2829 02.33706644013132
0 YAOGAN-31 A
1 43275U 18034A   19295.09565649 -.00000090  00000-0  00000+0 0  9996
2 43275  63.4081 215.2963 0057132   2.5292 357.6003 13.45189239 75305
0 YAOGAN-31 A
1 43275U 18034A   19295.24433463 -.00000090  00000-0  00000+0 0  9991
2 43275  63.4081 214.9145 0057163   2.5345 357.5964 13.45189259 75325
0 YAOGAN-31 A
1 43275U 18034A   19295.83904622 -.00000090  00000-0  00000+0 0  9996
2 43275  63.4080 213.3880 0057200   2.5316 357.5992 13.45189295 75403
0 YAOGAN-31 B
1 43276U 18034B   19295.76489625 -.00000090  00000-0  00000+0 0  9990
2 43276  63.4071 213.5698 0057325   2.4791 357.6513 13.45189739 75398
0 YAOGAN-31 B
1 43276U 18034B   19295.46754048 -.00000090  00000-0  00000+0 0  9991
2 43276  63.4070 214.3331 0057309   2.4779 357.6521 13.45189715 75357
0 YAOGAN-31 B
1 43276U 18034B   19294.94716785 -.00000090 +00000-0 +00000-0 0  9990
2 43276 063.4070 215.6689 0057247 002.4865 357.6430 13.45189700075289
0 YAOGAN-31 B
1 43276U 18034B   19295.09584584 -.00000090  00000-0  00000+0 0  9996
2 43276  63.4069 215.2869 0057259   2.4878 357.6422 13.45189683 75304
0 YAOGAN-31 C
1 43277U 18034C   19295.09566689  .00000202  00000-0  48949-3 0  9995
2 43277  63.4105 214.4384 0057492   2.4362 357.6878 13.45193606 75323
0 YAOGAN-31 C
1 43277U 18034C   19295.69037922  .00000202  00000-0  48949-3 0  9994
2 43277  63.4104 212.9121 0057523   2.4707 357.6579 13.45193659 75407
0 YAOGAN-31 C
1 43277U 18034C   19295.46736265  .00000202  00000-0  48949-3 0  9995
2 43277  63.4104 213.4843 0057532   2.4529 357.6750 13.45193573 75378
0 CZ-4C R/B
1 43278U 18034D   19295.77865280 -.00000086  00000-0  93798-5 0  9995
2 43278  63.4460 176.4040 0153300   9.6947 350.6987 13.60647297 76262
0 CZ-4C R/B
1 43278U 18034D   19294.89671846 -.00000097 +00000-0 -40932-5 0  9995
2 43278 063.4461 178.7267 0153219 009.7014 350.6920 13.60647210076143
0 WEINA 1B
1 43279U 18034E   19295.10962419  .00000441  00000-0  88983-3 0  9997
2 43279  63.4074 215.3379 0057620   5.0327 355.1198 13.45203928 75302
0 WEINA 1B
1 43279U 18034E   19295.70433398  .00000441  00000-0  88983-3 0  9992
2 43279  63.4076 213.8119 0057501   5.0767 355.0803 13.45203835 75382
0 WEINA 1B
1 43279U 18034E   19295.48131892  .00000441  00000-0  88983-3 0  9991
2 43279  63.4076 214.3841 0057506   5.0419 355.1147 13.45203681 75357
0 CZ-4C DEB
1 43280U 18034F   19294.90563658 -.00000070 +00000-0 +33155-4 0  9999
2 43280 063.4077 219.1912 0054086 005.1319 355.0250 13.43837474075201
0 CZ-4C DEB
1 43280U 18034F   19295.12887782 -.00000068  00000-0  36937-4 0  9999
2 43280  63.4077 218.6195 0054110   5.1353 355.0216 13.43837490 75237
0 TITAN 3C TRANSTAGE DEB
1 43282U 69013C   19295.62857761 -.00000145  00000-0  00000+0 0  9996
2 43282   4.6739 301.3582 0283345 318.9634  38.7345  0.91409803  5381
0 TITAN 3C TRANSTAGE DEB
1 43284U 69013E   19295.64762532 -.00000127  00000-0  00000+0 0  9991
2 43284   4.9396 295.2587 0144014 150.6221 210.0069  0.97231300  5674
0 TITAN 3C TRANSTAGE DEB
1 43285U 69013F   19294.74598547 -.00000180 +00000-0 +00000-0 0  9995
2 43285 005.3429 287.2279 0386509 274.4372 080.9743 00.93390624005400
0 IRNSS 1I
1 43286U 18035A   19294.59019903 +.00000120 +00000-0 +00000-0 0  9994
2 43286 028.6940 113.4943 0019843 176.6618 007.1772 01.00268874005701
0 IRNSS 1I
1 43286U 18035A   19295.59515691  .00000121  00000-0  00000+0 0  9990
2 43286  28.6959 113.4769 0019867 176.7674   9.8507  1.00269078  5708
0 WESTFORD NEEDLES
1 43288U 63014FL  19294.20976168 +.00003379 +00000-0 +65388+0 0  9994
2 43288 086.9438 009.0388 1303272 321.2386 030.1628 08.68966507157060
0 TRANSIT 5E-5 DEB
1 43289U 64083T   19295.04198544  .00007147  00000-0  18866-2 0  9998
2 43289  89.8705 147.6170 0099087 114.1808 246.9793 14.45937428213493
0 METEOR 1-10 DEB
1 43291U 71120V   19294.90512518 +.00002496 +00000-0 +44907-3 0  9994
2 43291 081.2361 353.8456 0013229 118.8903 241.3628 14.66319728251925
0 METEOR 1-10 DEB
1 43293U 71120X   19294.86237930 +.00002215 +00000-0 +40939-3 0  9993
2 43293 081.2418 357.5800 0011772 085.4058 274.8488 14.65099350246042
0 METEOR 1-10 DEB
1 43293U 71120X   19295.13555840  .00002218  00000-0  40996-3 0  9993
2 43293  81.2418 357.2891 0011755  84.6091 275.6451 14.65100576246084
0 COSMOS 864 DEB
1 43294U 76108C   19295.07614962  .00000099  00000-0  85992-4 0  9990
2 43294  82.9398 151.4481 0031247  87.3376 273.1356 13.75500294290686
0 COSMOS 864 DEB
1 43294U 76108C   19294.93066599 +.00000094 +00000-0 +81110-4 0  9994
2 43294 082.9399 151.5560 0031250 087.7271 272.7463 13.75500231290661
0 NOAA 6 DEB
1 43295U 79057E   19293.34808355  .00347449  00000-0  80346-2 0  9995
2 43295  98.6116 330.4983 0019489 199.8431 160.2056 15.40948608156560
0 METEOR 2-7 DEB
1 43300U 81043X   19295.29549419  .00000755  00000-0  39189-3 0  9995
2 43300  81.2637 295.8216 0037492 162.2099 198.0397 14.13492894210450
0 COSMOS 1461 DEB
1 43303U 83044GQ  19295.80359291  .00016849  00000-0  73371-3 0  9997
2 43303  64.9908  91.4096 0045185  52.8840 307.6404 15.21424999135414
0 COSMOS 1461 DEB
1 43304U 83044GR  19295.79318300  .00010774  00000-0  51303-3 0  9994
2 43304  64.9967 101.2266 0048898  54.6908 305.8778 15.18478350125507
0 COSMOS 1461 DEB
1 43304U 83044GR  19294.87113183 +.00015579 +00000-0 +73739-3 0  9999
2 43304 064.9982 104.1917 0048772 055.0795 305.4900 15.18464729125361
0 COSMOS 1461 DEB
1 43304U 83044GR  19294.87113183  .00015579  00000-0  73739-3 0  9999
2 43304  64.9982 104.1917 0048772  55.0795 305.4900 15.18464729125361
0 COSMOS 1461 DEB
1 43307U 83044GU  19294.81053762 +.00035907 +00000-0 +12360-2 0  9991
2 43307 064.9937 070.2283 0029247 052.5813 307.7975 15.29467711115623
0 COSMOS 1461 DEB
1 43308U 83044GV  19295.75446038  .00066534  00000-0  14853-2 0  9997
2 43308  64.9825  61.5490 0016466  33.7718 326.4467 15.43012331142092
0 COSMOS 1691 DEB
1 43315U 85094Z   19295.26861940  .00000071  00000-0  30652-3 0  9991
2 43315  82.5613 286.9925 0032941 123.4051 237.0202 12.68244825273728
0 COSMOS 1691 DEB
1 43315U 85094Z   19294.40084186 +.00000076 +00000-0 +33291-3 0  9992
2 43315 082.5611 287.5531 0032935 125.4097 235.0081 12.68244866273628
